NORAD_CAT_ID,OBJECT_NAME,OBJECT_TYPE,EPOCH,MEAN_MOTION,ECCENTRICITY,INCLINATION,RA_OF_ASC_NODE,ARG_OF_PERICENTER,MEAN_ANOMALY,BSTAR,MEAN_MOTION_DOT,MEAN_MOTION_DDOT,TLE_LINE0,TLE_LINE1,TLE_LINE2,SEMIMAJOR_AXIS,PERIOD,APOGEE,PERIGEE,DECAYED
56813.0,STARLINK-6056,PAYLOAD,2023-10-04 06:00:00,15.17264521,0.0003322,70.0007,62.2332,271.9185,118.0464,-0.046491,-0.00863593,0.0,0 STARLINK-6056,1 56813U 23078AY  23277.25001157 -.00863593  00000-0 -46491-1 0  9996,2 56813  70.0007  62.2332 0003322 271.9185 118.0464 15.17264521 20000,6892.249,94.908,516.404,511.825,0.0
56813.0,STARLINK-6056,PAYLOAD,2023-10-04 14:00:01,15.16666297,0.0003396,70.0009,61.3682,275.1904,134.5956,-0.05247,-0.00951063,0.0,0 STARLINK-6056,1 56813U 23078AY  23277.58334491 -.00951063  00000-0 -52470-1 0  9996,2 56813  70.0009  61.3682 0003396 275.1904 134.5956 15.16666297  5520,6894.061,94.945,518.268,513.585,0.0
56813.0,STARLINK-6056,PAYLOAD,2023-10-04 20:00:01,15.16146593,0.0003419,70.0007,60.72,277.6035,56.5553,-0.049804,-0.00893724,0.0,0 STARLINK-6056,1 56813U 23078AY  23277.83334491 -.00893724  00000-0 -49804-1 0  9990,2 56813  70.0007  60.7200 0003419 277.6035  56.5553 15.16146593 20092,6895.637,94.978,519.859,515.144,0.0
56813.0,STARLINK-6056,PAYLOAD,2023-10-04 22:00:01,15.16002784,0.0003409,70.0004,60.504,280.2518,148.6541,-0.051939,-0.00925717,0.0,0 STARLINK-6056,1 56813U 23078AY  23277.91668981 -.00925717  00000-0 -51939-1 0  9993,2 56813  70.0004  60.5040 0003409 280.2518 148.6541 15.16002784  5573,6896.073,94.987,520.289,515.587,0.0
56813.0,STARLINK-6056,PAYLOAD,2023-10-05 04:00:00,15.15486765,0.0003297,70.0006,59.8565,274.1936,78.4399,-0.051063,-0.00898828,0.0,0 STARLINK-6056,1 56813U 23078AY  23278.16667824 -.00898828  00000-0 -51063-1 0  9996,2 56813  70.0006  59.8565 0003297 274.1936  78.4399 15.15486765 20144,6897.638,95.019,521.777,517.229,0.0
56813.0,STARLINK-6056,PAYLOAD,2023-10-05 14:00:01,15.14707047,0.0003259,70.0007,58.7784,276.8993,187.7064,-0.055335,-0.00948678,0.0,0 STARLINK-6056,1 56813U 23078AY  23278.58334491 -.00948678  00000-0 -55335-1 0  9998,2 56813  70.0007  58.7784 0003259 276.8993 187.7064 15.14707047  5689,6900.005,95.068,524.119,519.621,0.0
56813.0,STARLINK-6056,PAYLOAD,2023-10-05 20:00:01,15.14189195,0.0003373,70.0005,58.1321,279.9454,107.2729,-0.052644,-0.00893586,0.0,0 STARLINK-6056,1 56813U 23078AY  23278.83334491 -.00893586  00000-0 -52644-1 0  9993,2 56813  70.0005  58.1321 0003373 279.9454 107.2729 15.14189195 20243,6901.578,95.1,525.771,521.115,0.0
56813.0,STARLINK-6056,PAYLOAD,2023-10-05 22:00:00,15.1404851,0.0003243,70.0003,57.9171,281.3881,199.9263,-0.055281,-0.00931598,0.0,0 STARLINK-6056,1 56813U 23078AY  23278.91667824 -.00931598  00000-0 -55281-1 0  9997,2 56813  70.0003  57.9171 0003243 281.3881 199.9263 15.14048510  5731,6902.006,95.109,526.109,521.632,0.0
56813.0,STARLINK-6056,PAYLOAD,2023-10-06 12:00:00,15.12923201,0.0003391,70.0006,56.4111,276.2938,142.3715,-0.058743,-0.00957025,0.0,0 STARLINK-6056,1 56813U 23078AY  23279.50001157 -.00957025  00000-0 -58743-1 0  9993,2 56813  70.0006  56.4111 0003391 276.2938 142.3715 15.12923201 20347,6905.428,95.18,529.634,524.951,0.0
56813.0,STARLINK-6056,PAYLOAD,2023-10-06 14:00:01,15.12746039,0.000325,70.0004,56.1962,277.5161,234.9333,-0.058062,-0.00942383,0.0,0 STARLINK-6056,1 56813U 23078AY  23279.58335648 -.00942383  00000-0 -58062-1 0  9991,2 56813  70.0004  56.1962 0003250 277.5161 234.9333 15.12746039  5835,6905.967,95.191,530.076,525.587,0.0
56813.0,STARLINK-6056,PAYLOAD,2023-10-06 22:00:01,15.12094941,0.0003216,70.0001,55.3371,281.5304,245.2778,-0.05883,-0.00937948,0.0,0 STARLINK-6056,1 56813U 23078AY  23279.91668981 -.00937948  00000-0 -58830-1 0  9991,2 56813  70.0001  55.3371 0003216 281.5304 245.2778 15.12094941  5895,6907.949,95.232,532.036,527.593,0.0
56813.0,STARLINK-6056,PAYLOAD,2023-10-07 04:00:00,15.11566353,0.0003246,70.0003,54.6934,277.2752,169.7427,-0.056009,-0.00883953,0.0,0 STARLINK-6056,1 56813U 23078AY  23280.16667824 -.00883953  00000-0 -56009-1 0  9997,2 56813  70.0003  54.6934 0003246 277.2752 169.7427 15.11566353 20445,6909.56,95.265,533.667,529.182,0.0
56813.0,STARLINK-6056,PAYLOAD,2023-10-07 14:00:01,15.1078653,0.0003236,70.0003,53.6216,277.6887,275.4366,-0.061028,-0.00938163,0.0,0 STARLINK-6056,1 56813U 23078AY  23280.58334491 -.00938163  00000-0 -61028-1 0  9995,2 56813  70.0003  53.6216 0003236 277.6887 275.4366 15.10786530  5999,6911.937,95.315,536.039,531.565,0.0
56813.0,STARLINK-6056,PAYLOAD,2023-10-07 20:00:01,15.10275516,0.0003326,70.0001,52.979,282.9417,189.2727,-0.058703,-0.00893171,0.0,0 STARLINK-6056,1 56813U 23078AY  23280.83334491 -.00893171  00000-0 -58703-1 0  9998,2 56813  70.0001  52.9790 0003326 282.9417 189.2727 15.10275516 20542,6913.496,95.347,537.66,533.062,0.0
56813.0,STARLINK-6056,PAYLOAD,2023-10-07 22:00:00,15.1014051,0.0003202,69.9999,52.7651,281.0973,284.0385,-0.062517,-0.00943564,0.0,0 STARLINK-6056,1 56813U 23078AY  23280.91667824 -.00943564  00000-0 -62517-1 0  9996,2 56813  69.9999  52.7651 0003202 281.0973 284.0385 15.10140510  5956,6913.908,95.355,537.987,533.559,0.0
56813.0,STARLINK-6056,PAYLOAD,2023-10-08 12:00:00,15.09010372,0.0003242,70.0003,51.2683,278.428,215.8467,-0.065754,-0.00960576,0.0,0 STARLINK-6056,1 56813U 23078AY  23281.50001157 -.00960576  00000-0 -65754-1 0  9991,2 56813  70.0003  51.2683 0003242 278.4280 215.8467 15.09010372 20645,6917.36,95.427,541.467,536.982,0.0
56813.0,STARLINK-6056,PAYLOAD,2023-10-08 14:00:01,15.08827731,0.0003224,70.0002,51.0547,277.8576,308.9662,-0.064208,-0.00935316,0.0,0 STARLINK-6056,1 56813U 23078AY  23281.58334491 -.00935316  00000-0 -64208-1 0  9996,2 56813  70.0002  51.0547 0003224 277.8576 308.9662 15.08827731  5820,6917.918,95.438,542.013,537.553,0.0
56813.0,STARLINK-6056,PAYLOAD,2023-10-08 22:00:00,15.08185104,0.0003255,69.9999,50.2007,280.854,315.6317,-0.066256,-0.00947323,0.0,0 STARLINK-6056,1 56813U 23078AY  23281.91667824 -.00947323  00000-0 -66256-1 0  9998,2 56813  69.9999  50.2007 0003255 280.8540 315.6317 15.08185104  5871,6919.883,95.479,544.0,539.495,0.0
56813.0,STARLINK-6056,PAYLOAD,2023-10-09 06:00:02,15.07486461,0.0003183,70.0,49.3478,274.4949,330.9511,-0.061393,-0.00867132,0.0,0 STARLINK-6056,1 56813U 23078AY  23282.25002315 -.00867132  00000-0 -61393-1 0  9990,2 56813  70.0000  49.3478 0003183 274.4949 330.9511 15.07486461 20760,6922.021,95.523,546.089,541.682,0.0
56813.0,STARLINK-6056,PAYLOAD,2023-10-09 14:00:01,15.0686963,0.0003225,70.0003,48.4955,277.247,336.2339,-0.067601,-0.00933583,0.0,0 STARLINK-6056,1 56813U 23078AY  23282.58334491 -.00933583  00000-0 -67601-1 0  9991,2 56813  70.0003  48.4955 0003225 277.2470 336.2339 15.06869630  5986,6923.91,95.562,548.008,543.542,0.0
56813.0,STARLINK-6056,PAYLOAD,2023-10-09 22:00:00,15.06227039,0.0003203,70.0,47.6442,277.906,342.8911,-0.06989,-0.00947378,0.0,0 STARLINK-6056,1 56813U 23078AY  23282.91667824 -.00947378  00000-0 -69890-1 0  9996,2 56813  70.0000  47.6442 0003203 277.9060 342.8911 15.06227039 20867,6925.879,95.603,549.962,545.525,0.0
56813.0,STARLINK-6056,PAYLOAD,2023-10-10 14:00:01,15.04911846,0.0003254,70.0005,45.9444,272.7483,0.3495,-0.07117,-0.00932294,0.0,0 STARLINK-6056,1 56813U 23078AY  23283.58334491 -.00932294  00000-0 -71170-1 0  9996,2 56813  70.0005  45.9444 0003254 272.7483   0.3495 15.04911846 20961,6929.913,95.687,554.033,549.523,0.0
56813.0,STARLINK-6056,PAYLOAD,2023-10-10 22:00:01,15.04273964,0.0003287,70.0002,45.0956,275.1652,2.9619,-0.074247,-0.0096535,0.0,0 STARLINK-6056,1 56813U 23078AY  23283.91668981 -.00965350  00000-0 -74247-1 0  9994,2 56813  70.0002  45.0956 0003287 275.1652   2.9619 15.04273964  5914,6931.872,95.727,556.016,551.459,0.0
56813.0,STARLINK-6056,PAYLOAD,2023-10-11 14:00:01,15.02953395,0.0003276,70.0007,43.401,272.6863,12.9877,-0.074789,-0.00929855,0.0,0 STARLINK-6056,1 56813U 23078AY  23284.58334491 -.00929855  00000-0 -74789-1 0  9995,2 56813  70.0007  43.4010 0003276 272.6863  12.9877 15.02953395  5903,6935.932,95.811,560.069,555.525,0.0
56813.0,STARLINK-6056,PAYLOAD,2023-10-11 22:00:00,15.02318487,0.0003309,70.0005,42.5549,274.8069,13.4859,-0.078511,-0.0096869,0.0,0 STARLINK-6056,1 56813U 23078AY  23284.91667824 -.00968690  00000-0 -78511-1 0  9998,2 56813  70.0005  42.5549 0003309 274.8069  13.4859 15.02318487 21166,6937.886,95.852,562.047,557.455,0.0
56813.0,STARLINK-6056,PAYLOAD,2023-10-12 14:00:01,15.0099263,0.0003309,70.001,40.8654,272.9684,18.2414,-0.078154,-0.00923031,0.0,0 STARLINK-6056,1 56813U 23078AY  23285.58334491 -.00923031  00000-0 -78154-1 0  9996,2 56813  70.0010  40.8654 0003309 272.9684  18.2414 15.00992630 21269,6941.971,95.937,566.133,561.539,0.0
56813.0,STARLINK-6056,PAYLOAD,2023-10-12 22:00:01,15.00364071,0.0003296,70.0009,40.0218,274.7774,16.7659,-0.083237,-0.00974896,0.0,0 STARLINK-6056,1 56813U 23078AY  23285.91668981 -.00974896  00000-0 -83237-1 0  9990,2 56813  70.0009  40.0218 0003296 274.7774  16.7659 15.00364071  5819,6943.91,95.977,568.064,563.486,0.0
56813.0,STARLINK-6056,PAYLOAD,2023-10-13 06:00:02,14.99490722,0.0003228,70.0013,39.1793,270.5732,20.5047,-0.022849,-0.00270521,0.0,0 STARLINK-6056,1 56813U 23078AY  23286.25002315 -.00270521  00000-0 -22849-1 0  9997,2 56813  70.0013  39.1793 0003228 270.5732  20.5047 14.99490722 21366,6946.606,96.033,570.713,566.228,0.0
56813.0,STARLINK-6056,PAYLOAD,2023-10-13 14:00:01,14.99293344,0.0003391,70.0014,38.3375,274.9347,14.8387,-6.1903e-05,-8.51e-06,0.0,0 STARLINK-6056,1 56813U 23078AY  23286.58334491 -.00000851  00000-0 -61903-4 0  9990,2 56813  70.0014  38.3375 0003391 274.9347  14.8387 14.99293344 21415,6947.215,96.045,571.436,566.725,0.0
56813.0,STARLINK-6056,PAYLOAD,2023-10-13 22:00:00,14.99291077,0.0003386,70.0013,37.4957,274.0149,14.3948,-0.0010773,-0.00013248,0.0,0 STARLINK-6056,1 56813U 23078AY  23286.91667824 -.00013248  00000-0 -10773-2 0  9997,2 56813  70.0013  37.4957 0003386 274.0149  14.3948 14.99291077  5966,6947.222,96.045,571.44,566.735,0.0
